FENGYUN 1C DEB          
1 31727U 99025CEA 24357.74782781  .00009329  00000+0  35615-2 0  9994
2 31727  98.8611  94.9722 0037282 301.4000 212.6831 14.30581406665808
FENGYUN 1C DEB          
1 31731U 99025CEE 24357.01162679  .00009651  00000+0  33981-2 0  9999
2 31731  99.3297   9.4700 0011785  51.8015 308.4227 14.35012054907184
FENGYUN 1C DEB          
1 31732U 99025CEF 24357.57343094  .00001050  00000+0  59583-3 0  9995
2 31732  98.6163  41.0464 0041043 178.2555 181.8767 14.11636668593181
FENGYUN 1C DEB          
1 31734U 99025CEH 24355.25529661  .00002232  00000+0  86713-3 0  9994
2 31734  98.4774 351.0833 0105136 338.8776  20.8080 14.27849252913476
FENGYUN 1C DEB          
1 31735U 99025CEJ 24358.23031193  .00007552  00000+0  23864-2 0  9991
2 31735  98.5741  94.3601 0064313 265.2203  94.1638 14.39291854916288
FENGYUN 1C DEB          
1 31736U 99025CEK 24357.98380094  .00000554  00000+0  31449-3 0  9994
2 31736  98.6774   4.1411 0012095 171.2751 188.8635 14.13858597907089
FENGYUN 1C DEB          
1 31737U 99025CEL 24357.58015661  .00006270  00000+0  98425-3 0  9994
2 31737  97.9594  36.2009 0159449  63.7233  88.9566 14.64727722929927
FENGYUN 1C DEB          
1 31738U 99025CEM 24353.90234156  .00003796  00000+0  24336-2 0  9998
2 31738  99.3936  55.4875 0313327 335.4997  23.1535 13.82513111882188
FENGYUN 1C DEB          
1 31739U 99025CEN 24358.00482244  .00000369  00000+0  18251-3 0  9991
2 31739  98.7985  50.8539 0128105  17.3769 343.1731 14.18952816908555
FENGYUN 1C DEB          
1 31740U 99025CEP 24353.58733054  .00006948  00000+0  23375-2 0  9990
2 31740  99.7952 107.0868 0025591  20.1323 351.6893 14.37287106599064
FENGYUN 1C DEB          
1 31742U 99025CER 24357.79735643  .00003903  00000+0  12684-2 0  9994
2 31742  98.9566 196.6852 0078690 296.8488  62.4668 14.37676266915458
FENGYUN 1C DEB          
1 31743U 99025CES 24356.22527854  .00005587  00000+0  23089-2 0  9996
2 31743  99.1407 261.0970 0039725 169.2544 342.9250 14.26691640905482
FENGYUN 1C DEB          
1 31744U 99025CET 24357.71501445  .00009469  00000+0  32359-2 0  9993
2 31744  99.2850  88.2996 0340587 319.3542  38.2650 14.08621625896855
FENGYUN 1C DEB          
1 31746U 99025CEV 24356.23327989  .00023105  00000+0  49978-2 0  9998
2 31746  98.5807  95.9493 0032544 235.4172 124.3954 14.57907204918398
FENGYUN 1C DEB          
1 31750U 99025CEZ 24356.56972351  .00065998  00000+0  58645-2 0  9995
2 31750  98.7202 280.4942 0048310 145.0652 215.3752 14.94923192927292
FENGYUN 1C DEB          
1 31752U 99025CFB 24347.01818546  .00006973  00000+0  33085-2 0  9991
2 31752  99.0052  64.2755 0369982 252.6438 103.3945 13.89473822885048
FENGYUN 1C DEB          
1 31753U 99025CFC 24356.57864903  .00001035  00000+0  46267-3 0  9992
2 31753  98.6752  32.3361 0161074 119.3617  32.8470 14.17978212909704
FENGYUN 1C DEB          
1 31754U 99025CFD 24358.06549567  .00006591  00000+0  21381-2 0  9996
2 31754  99.0058 298.1922 0052235 183.9140 176.1645 14.38473309918818
FENGYUN 1C DEB          
1 31755U 99025CFE 24358.22661059  .00002079  00000+0  10677-2 0  9999
2 31755  98.7633 353.8570 0190093 302.1158 116.9358 14.07540867912414
FENGYUN 1C DEB          
1 31757U 99025CFG 24357.30533000  .00001655  00000+0  81554-3 0  9995
2 31757  98.7999  22.7947 0219323   6.2399 354.1423 14.07124992588817
FENGYUN 1C DEB          
1 31758U 99025CFH 24356.30280097  .00012721  00000+0  24426-2 0  9990
2 31758  98.0869  21.0630 0365407  86.3177 277.9706 14.28902380890849
FENGYUN 1C DEB          
1 31760U 99025CFK 24357.13700768  .00003125  00000+0  12479-2 0  9990
2 31760  99.2698  66.7978 0054579 140.9547 219.5592 14.28436177910528
FENGYUN 1C DEB          
1 31761U 99025CFL 24357.11631887  .00009370  00000+0  23375-2 0  9999
2 31761  98.6837 232.0711 0495407 180.7688 179.2771 13.97132140531334
FENGYUN 1C DEB          
1 31763U 99025CFN 24357.40069500  .00003843  00000+0  24139-2 0  9998
2 31763  98.4802 150.0276 0554275 269.3273 115.8915 13.48304797862130
FENGYUN 1C DEB          
1 31765U 99025CFQ 24358.03429208  .00164964  00000+0  20389-1 0  9999
2 31765  99.0632 200.4012 0079158  87.8092  65.6793 14.79680324890834
FENGYUN 1C DEB          
1 31766U 99025CFR 24354.23666681  .00000582  00000+0  37879-3 0  9995
2 31766  98.8071 356.1953 0074154 215.0548 144.5727 14.04994048905643
FENGYUN 1C DEB          
1 31767U 99025CFS 24358.07963431  .00000385  00000+0  26565-3 0  9996
2 31767  98.8635  30.8338 0040710 343.2108  36.7533 14.04663334899864
FENGYUN 1C DEB          
1 31768U 99025CFT 24356.03676877  .00018466  00000+0  36019-2 0  9999
2 31768  99.0729  24.2338 0034372   4.9769  25.2986 14.62649710917637
FENGYUN 1C DEB          
1 31772U 99025CFX 24357.77527236  .00004400  00000+0  23267-2 0  9994
2 31772  98.4647 289.4914 0143472  48.1434 313.1879 14.09082945658791
FENGYUN 1C DEB          
1 31773U 99025CFY 24354.14215126  .00017102  00000+0  35448-2 0  9992
2 31773  98.9296 307.0748 0048006 206.2328 153.6437 14.59553097599185
FENGYUN 1C DEB          
1 31776U 99025CGB 24357.11318917  .00005342  00000+0  26959-2 0  9997
2 31776  99.1013  42.9675 0057703 262.9639 124.9905 14.15821191902465
FENGYUN 1C DEB          
1 31779U 99025CGE 24358.12614861  .00002230  00000+0  54864-3 0  9999
2 31779  99.3174 240.8839 0218546 141.7502 219.9418 14.39978379919870
FENGYUN 1C DEB          
1 31780U 99025CGF 24358.05580292  .00005088  00000+0  77213-3 0  9990
2 31780  99.2528  97.9251 0158334  59.7003 301.9755 14.66458356934371
FENGYUN 1C DEB          
1 31781U 99025CGG 24353.67555374  .00019103  00000+0  94642-2 0  9994
2 31781  99.4698 138.9898 0224167 188.1055 171.6465 14.05043049890729
FENGYUN 1C DEB          
1 31782U 99025CGH 24356.38794150  .00002129  00000+0  74040-3 0  9994
2 31782  98.8629 140.8417 0080871 324.5722  92.0908 14.34731468915788
FENGYUN 1C DEB          
1 31783U 99025CGJ 24353.52767316  .00001562  00000+0  89929-3 0  9994
2 31783  98.6213  12.3108 0104358 348.3564 165.8851 14.07892014841645
FENGYUN 1C DEB          
1 31788U 99025CGP 24357.62772646  .00005087  00000+0  46651-2 0  9996
2 31788 102.5561  46.8034 0478402 146.0716   5.3792 13.41754240859586
FENGYUN 1C DEB          
1 31802U 99025CGQ 24357.64928269  .00109921  00000+0  28100-2 0  9990
2 31802  98.1901 143.3078 0071391 262.0467  97.2668 15.36414808944889
FENGYUN 1C DEB          
1 31805U 99025CGT 24355.78910137  .00009673  00000+0  27356-2 0  9996
2 31805  98.3535   3.8118 0478650  87.1340 278.4483 13.94973715573725
FENGYUN 1C DEB          
1 31807U 99025CGV 24353.50080459  .00006638  00000+0  16501-2 0  9999
2 31807  99.0526  91.2907 0111895 158.8565 201.7305 14.48392055923039
FENGYUN 1C DEB          
1 31808U 99025CGW 24353.64343077  .00025807  00000+0  84050-2 0  9996
2 31808  99.2040 142.9902 0054627 126.4331 234.1907 14.37794263524066
FENGYUN 1C DEB          
1 31810U 99025CGY 24355.77709439  .00003820  00000+0  86035-3 0  9990
2 31810  98.2923  14.1032 0223479 144.6286 216.9965 14.42662097592619
FENGYUN 1C DEB          
1 31813U 99025CHB 24353.30531823  .00003782  00000+0  91945-3 0  9993
2 31813  99.4667  24.3063 0140557 314.9598  44.0262 14.47709837920513
FENGYUN 1C DEB          
1 31814U 99025CHC 24355.86229776  .00000786  00000+0  84159-3 0  9998
2 31814  99.6121  43.0057 0230316  50.8725 311.2647 13.65957124569263
FENGYUN 1C DEB          
1 31815U 99025CHD 24357.86131053  .00000161  00000+0  11392-3 0  9997
2 31815  98.7390 347.6009 0058109 306.7139  52.8702 14.10167052905350
FENGYUN 1C DEB          
1 31816U 99025CHE 24357.27175662  .00002002  00000+0  14885-2 0  9992
2 31816  98.9609 116.0392 0122628  47.1058 343.7362 13.92619146887430
FENGYUN 1C DEB          
1 31817U 99025CHF 24353.18745114  .00009852  00000+0  20961-2 0  9996
2 31817  98.8951 315.5720 0071449  97.3976 263.5347 14.57634641661511
FENGYUN 1C DEB          
1 31819U 99025CHH 24356.43408207  .00001850  00000+0  71638-3 0  9996
2 31819  98.4547 351.6557 0087941 290.8596  68.3186 14.29105116916021
FENGYUN 1C DEB          
1 31820U 99025CHJ 24357.30064066  .00019244  00000+0  19932-2 0  9990
2 31820  98.9291 118.3128 0187535  62.4912 299.5217 14.77911524929793
FENGYUN 1C DEB          
1 31821U 99025CHK 24357.68976520  .00033367  00000+0  98582-2 0  9999
2 31821  98.1678 256.4385 0279343 358.2451   1.7723 14.23123631885855
FENGYUN 1C DEB          
1 31823U 99025CHM 24357.85825980  .00018475  00000+0  40679-2 0  9990
2 31823  99.5366  24.8736 0041810 207.7681 152.1281 14.56945603915347
FENGYUN 1C DEB          
1 31825U 99025CHP 24357.81817339  .00002960  00000+0  12207-2 0  9995
2 31825  98.5859   1.0780 0168066 286.5427  71.7347 14.20221003905819
FENGYUN 1C DEB          
1 31826U 99025CHQ 24357.46713080  .00001125  00000+0  52360-3 0  9992
2 31826  98.6060 352.4799 0126465 133.9882  18.4420 14.18258631907765
FENGYUN 1C DEB          
1 31829U 99025CHT 24358.01783670  .00000742  00000+0  58435-3 0  9992
2 31829  98.8198 180.5244 0170353  51.4885 104.2825 13.88115662892240
FENGYUN 1C DEB          
1 31830U 99025CHU 24354.81911015  .00004152  00000+0  34425-2 0  9995
2 31830  99.1544 104.3139 0191265 190.9397 322.4835 13.81222616879241
FENGYUN 1C DEB          
1 31834U 99025CHY 24351.90335192  .00001454  00000+0  86317-3 0  9992
2 31834  98.4152 233.9466 0163252  17.9331 342.7505 14.02481155904477
FENGYUN 1C DEB          
1 31837U 99025CJB 24355.47255852  .00011678  00000+0  16489-2 0  9996
2 31837  98.1348  62.3575 0110346  86.4315 274.9504 14.73181196930821
FENGYUN 1C DEB          
1 31838U 99025CJC 24355.01573330  .00002386  00000+0  11444-2 0  9993
2 31838  98.7555  44.0574 0038774  45.8044  71.8106 14.19510504594980
FENGYUN 1C DEB          
1 31841U 99025CJF 24356.77558196  .00009964  00000+0  43900-2 0  9995
2 31841  98.4188 186.1225 0320775 230.5106 193.1339 13.99579164543525
FENGYUN 1C DEB          
1 31843U 99025CJH 24358.15545592  .00005115  00000+0  33710-2 0  9999
2 31843  99.2472 325.4183 0660615 145.5174 219.0706 13.28160821851349
